STARLINK-2022           
1 47643U 21012Z   24126.19862971  .00009994  00000+0  68861-3 0  9990
2 47643  53.0536 195.0318 0001457 107.1658 252.9490 15.06412331178238
